CSS (TIANHE)            
1 48274U 21035A   23230.64680783  .00031964  00000+0  37428-3 0  9997
2 48274  41.4738 136.2357 0008986 186.7016 173.3704 15.60814023131595
